BEIDOU-2 IGSO-4         
1 37763U 11038A   26156.01309722  .00000056  00000+0  00000+0 0  9992
2 37763  54.5979 165.7814 0159001 231.3624 313.8818  1.00287701 54520
ASTRA 1N                
1 37775U 11041A   26159.13363265  .00000135  00000+0  00000+0 0  9995
2 37775   0.0794  34.8576 0006288  57.6545 231.3359  1.00272079 44439
BSAT-3C (JCSAT-110R)    
1 37776U 11041B   26159.00906968 -.00000335  00000+0  00000+0 0  9998
2 37776   0.0194 320.8907 0000470 199.8085 208.9338  1.00272013 50370
PAKSAT-1R               
1 37779U 11042A   26159.15947676  .00000169  00000+0  00000+0 0  9993
2 37779   0.6644  84.6927 0003285 345.4430 281.8294  1.00274732 54382
SES-2                   
1 37809U 11049A   26159.11257603 -.00000180  00000+0  00000+0 0  9998
2 37809   0.0435 120.5829 0002895 314.3285 135.1296  1.00271729 53877
ARABSAT-5C              
1 37810U 11049B   26158.56342295  .00000138  00000+0  00000+0 0  9992
2 37810   0.0594  27.9926 0003293  65.9651  24.8388  1.00273558 53948
EUTELSAT 7 WEST A       
1 37816U 11051A   26159.12834596 -.00000045  00000+0  00000+0 0  9992
2 37816   0.0603 352.5737 0004239  97.4107 205.4280  1.00271304 53786
QUETZSAT 1              
1 37826U 11054A   26159.11456939 -.00000226  00000+0  00000+0 0  9997
2 37826   0.0461  70.1906 0002808   8.4840 142.0914  1.00272064 49785
INTELSAT 18 (IS-18)     
1 37834U 11056A   26159.09396741  .00000068  00000+0  00000+0 0  9992
2 37834   0.0202 320.8444 0002137 130.5072  18.9700  1.00272240 53727
EUTELSAT 16A            
1 37836U 11057A   26159.13302600  .00000119  00000+0  00000+0 0  9998
2 37836   0.0420 353.1808 0005863  86.6668 240.5494  1.00270742  7249
VIASAT-1                
1 37843U 11059A   26158.67930671 -.00000009  00000+0  00000+0 0  9990
2 37843   0.0164 308.0335 0002429 130.1490 307.3550  1.00271945 47222
ASIASAT 7               
1 37933U 11069A   26159.00811634  .00000000  00000+0  00000+0 0  9996
2 37933   0.0162 349.2610 0001364  82.8174 292.7616  1.00266655 44760
BEIDOU-2 IGSO-5         
1 37948U 11073A   26158.80025013 -.00000160  00000+0  00000+0 0  9990
2 37948  47.6966 271.6638 0113614 221.6822 142.6954  1.00275188 53048
LUCH-5A                 
1 37951U 11074B   26158.59534880 -.00000036  00000+0  00000+0 0  9990
2 37951   8.7288  73.9491 0002350  13.7811 189.5949  1.00269830 52959
NIGCOMSAT 1R            
1 38014U 11077A   26159.15947676  .00000160  00000+0  00000+0 0  9995
2 38014   0.0083 266.4081 0002574  87.4457   2.5964  1.00271760 52860
WGS F4 (USA 233)        
1 38070U 12003A   26159.07602130  .00000000  00000+0  00000+0 0  9994
2 38070   0.0171 335.9627 0000422 308.9918  87.3074  1.00267762 44053
SES-4                   
1 38087U 12007A   26158.34125182 -.00000154  00000+0  00000+0 0  9993
2 38087   0.0248  27.8011 0002493  58.4945 270.3024  1.00270468 52120
BEIDOU-2 G5             
1 38091U 12008A   26159.14151938  .00000073  00000+0  00000+0 0  9995
2 38091   3.5504  69.7521 0009413 276.1222  20.2929  1.00270155 52270
MUOS-1                  
1 38093U 12009A   26158.68225339 -.00000114  00000+0  00000+0 0  9990
2 38093   5.4576  47.1644 0058880   1.0813 353.4822  1.00270705 52343
INTELSAT 22 (IS-22)     
1 38098U 12011A   26159.14411939 -.00000044  00000+0  00000+0 0  9995
2 38098   0.0228  63.7498 0001612   3.9804 312.7921  1.00273351  7096
APSTAR-7                
1 38107U 12013A   26159.14498605 -.00000086  00000+0  00000+0 0  9999
2 38107   0.0366  87.2382 0003023 359.6425 298.3479  1.00271258 51710
YAHSAT 1B               
1 38245U 12016A   26159.13926602  .00000142  00000+0  00000+0 0  9999
2 38245   0.0870  90.9737 0002699   9.7944 253.5099  1.00269234 45518
AEHF-2 (USA 235)        
1 38254U 12019A   26159.13030714 -.00000121  00000+0  00000+0 0  9990
2 38254   6.6307  57.5560 0002322   9.8857 219.4735  1.00270420  6890
JCSAT-13                
1 38331U 12023A   26159.01184301 -.00000341  00000+0  00000+0 0  9994
2 38331   0.0119  36.8430 0002855  61.3225 286.5140  1.00271782 51442
VINASAT-2               
1 38332U 12023B   26158.94208252 -.00000313  00000+0  00000+0 0  9997
2 38332   0.0178  15.2568 0002396  73.8880 278.2012  1.00272128 46564
NIMIQ 6                 
1 38342U 12026A   26159.04052934 -.00000158  00000+0  00000+0 0  9994
2 38342   0.0100 332.5433 0002777 102.8068 104.5812  1.00271724 50329
ZHONGXING-2A            
1 38352U 12028A   26159.00672965 -.00000277  00000+0  00000+0 0  9997
2 38352   1.4298  84.0016 0003755  33.7431 239.3166  1.00270950 51209
INTELSAT 19 (IS-19)     
1 38356U 12030A   26158.59237111 -.00000042  00000+0  00000+0 0  9997
2 38356   0.0106  32.4422 0003093  51.8353 190.9735  1.00271459 50357
ECHOSTAR 17             
1 38551U 12035A   26158.60951166  .00000000  00000+0  00000+0 0  9997
2 38551   0.0178 344.3202 0001807  92.1715 291.8458  1.00269025 50961
METEOSAT-10 (MSG-3)     
1 38552U 12035B   26159.05851455  .00000010  00000+0  00000+0 0  9999
2 38552   4.6491  61.0583 0001633 335.2386 241.4327  1.00275787 50763
SES-5                   
1 38652U 12036A   26158.77434375  .00000049  00000+0  00000+0 0  9999
2 38652   0.0515 307.7529 0001983 128.4245 103.7453  1.00272808 44365
INTELSAT 20 (IS-20)     
1 38740U 12043A   26159.07212126 -.00000008  00000+0  00000+0 0  9993
2 38740   0.0081  87.6182 0001576 100.3071 163.0027  1.00266075 50658
